STARLINK-31445          
1 59312U 24056S   26068.76323938 -.00001838  00000+0 -57293-4 0  9991
2 59312  42.9999 237.3767 0001523 276.6676  83.4003 15.27565850111083
FLOCK 4G-29             
1 62642U 25009AK  26068.81464037  .00011147  00000+0  41831-3 0  9994
2 62642  97.4058 151.3683 0001366 288.0502  72.0588 15.27382318 63721
